start=new Date('2022-04-25T00:00:00.000Z').valueOf();
sats=[{"MEAN_ELEMENT_THEORY":"SGP4","EPOCH":"2022-04-24T08:25:47.391744","OBJECT_NAME":"STARLINK-1530","MEAN_MOTION_DOT":"0.00000530","APOAPSIS":"548.312","CLASSIFICATION_TYPE":"U","MEAN_ANOMALY":"291.9897","COUNTRY_CODE":"US","INCLINATION":"53.0552","NORAD_CAT_ID":"46049","ARG_OF_PERICENTER":"68.1264","GP_ID":"201933165","BSTAR":"0.00005449600000","REF_FRAME":"TEME","RCS_SIZE":"LARGE","CENTER_NAME":"EARTH","PERIAPSIS":"546.072","ELEMENT_SET_NO":"999","MEAN_MOTION_DDOT":"0.0000000000000","LAUNCH_DATE":"2020-08-07","EPHEMERIS_TYPE":"0","DECAY_DATE":null,"REV_AT_EPOCH":"9571","TLE_LINE2":"2 46049  53.0552 350.3268 0001617  68.1264 291.9897 15.06406946 95712","OBJECT_ID":"2020-055Y","ECCENTRICITY":"0.00016170","MEAN_MOTION":"15.06406946","SITE":"AFETR","PERIOD":"95.592","TIME_SYSTEM":"UTC","RA_OF_ASC_NODE":"350.3268","FILE":"3414186","TLE_LINE1":"1 46049U 20055Y   22114.35124296  .00000530  00000-0  54496-4 0  9997","OBJECT_TYPE":"PAYLOAD","SEMIMAJOR_AXIS":"6925.327"},{"PERIOD":"95.592","TIME_SYSTEM":"UTC","FILE":"3414186","TLE_LINE1":"1 46051U 20055AA  22114.38810900  .00001525  00000-0  12128-3 0  9997","RA_OF_ASC_NODE":"350.1518","SEMIMAJOR_AXIS":"6925.354","OBJECT_TYPE":"PAYLOAD","DECAY_DATE":null,"REV_AT_EPOCH":"9572","EPHEMERIS_TYPE":"0","LAUNCH_DATE":"2020-08-07","TLE_LINE2":"2 46051  53.0560 350.1518 0001436  85.6756 274.4397 15.06398334 95722","OBJECT_ID":"2020-055AA","ECCENTRICITY":"0.00014360","MEAN_MOTION":"15.06398334","SITE":"AFETR","BSTAR":"0.00012128000000","GP_ID":"201933417","NORAD_CAT_ID":"46051","ARG_OF_PERICENTER":"85.6756","CENTER_NAME":"EARTH","RCS_SIZE":"LARGE","REF_FRAME":"TEME","MEAN_MOTION_DDOT":"0.0000000000000","ELEMENT_SET_NO":"999","PERIAPSIS":"546.224","OBJECT_NAME":"STARLINK-1540","MEAN_ELEMENT_THEORY":"SGP4","EPOCH":"2022-04-24T09:18:52.617600","APOAPSIS":"548.213","MEAN_MOTION_DOT":"0.00001525","CLASSIFICATION_TYPE":"U","INCLINATION":"53.0560","COUNTRY_CODE":"US","MEAN_ANOMALY":"274.4397"},{"FILE":"3414378","TLE_LINE1":"1 46052U 20055AB  22114.63875586  .00003598  00000-0  26043-3 0  9990","RA_OF_ASC_NODE":"349.0168","SEMIMAJOR_AXIS":"6925.392","OBJECT_TYPE":"PAYLOAD","PERIOD":"95.593","TIME_SYSTEM":"UTC","ECCENTRICITY":"0.00012130","MEAN_MOTION":"15.06385853","SITE":"AFETR","DECAY_DATE":null,"REV_AT_EPOCH":"9523","EPHEMERIS_TYPE":"0","LAUNCH_DATE":"2020-08-07","TLE_LINE2":"2 46052  53.0567 349.0168 0001213  87.3856 272.7271 15.06385853 95231","OBJECT_ID":"2020-055AB","ELEMENT_SET_NO":"999","MEAN_MOTION_DDOT":"0.0000000000000","PERIAPSIS":"546.417","BSTAR":"0.00026043000000","GP_ID":"201942938","NORAD_CAT_ID":"46052","ARG_OF_PERICENTER":"87.3856","RCS_SIZE":"LARGE","CENTER_NAME":"EARTH","REF_FRAME":"TEME","CLASSIFICATION_TYPE":"U","INCLINATION":"53.0567","MEAN_ANOMALY":"272.7271","COUNTRY_CODE":"US","OBJECT_NAME":"STARLINK-1541","EPOCH":"2022-04-24T15:19:48.506304","MEAN_ELEMENT_THEORY":"SGP4","APOAPSIS":"548.097","MEAN_MOTION_DOT":"0.00003598"},{"ELEMENT_SET_NO":"999","MEAN_MOTION_DDOT":"0.0000000000000","PERIAPSIS":"546.275","RCS_SIZE":"LARGE","CENTER_NAME":"EARTH","REF_FRAME":"TEME","GP_ID":"201932416","BSTAR":"0.00009312100000","ARG_OF_PERICENTER":"73.9747","NORAD_CAT_ID":"46053","INCLINATION":"53.0568","MEAN_ANOMALY":"286.1390","COUNTRY_CODE":"US","CLASSIFICATION_TYPE":"U","APOAPSIS":"548.135","MEAN_MOTION_DOT":"0.00001106","OBJECT_NAME":"STARLINK-1543","MEAN_ELEMENT_THEORY":"SGP4","EPOCH":"2022-04-24T09:02:57.132096","SEMIMAJOR_AXIS":"6925.340","OBJECT_TYPE":"PAYLOAD","FILE":"3414186","TLE_LINE1":"1 46053U 20055AC  22114.37705014  .00001106  00000-0  93121-4 0  9995","RA_OF_ASC_NODE":"350.1972","TIME_SYSTEM":"UTC","PERIOD":"95.592","MEAN_MOTION":"15.06402750","SITE":"AFETR","ECCENTRICITY":"0.00013430","TLE_LINE2":"2 46053  53.0568 350.1972 0001343  73.9747 286.1390 15.06402750 95713","OBJECT_ID":"2020-055AC","DECAY_DATE":null,"REV_AT_EPOCH":"9571","LAUNCH_DATE":"2020-08-07","EPHEMERIS_TYPE":"0"},{"OBJECT_NAME":"STARLINK-1548","EPOCH":"2022-04-24T09:13:34.244832","MEAN_ELEMENT_THEORY":"SGP4","APOAPSIS":"548.193","MEAN_MOTION_DOT":"0.00003239","CLASSIFICATION_TYPE":"U","INCLINATION":"53.0554","COUNTRY_CODE":"US","MEAN_ANOMALY":"282.1927","GP_ID":"201932666","BSTAR":"0.00023625000000","NORAD_CAT_ID":"46054","ARG_OF_PERICENTER":"77.9217","CENTER_NAME":"EARTH","RCS_SIZE":"LARGE","REF_FRAME":"TEME","ELEMENT_SET_NO":"999","MEAN_MOTION_DDOT":"0.0000000000000","PERIAPSIS":"546.269","DECAY_DATE":null,"REV_AT_EPOCH":"9571","LAUNCH_DATE":"2020-08-07","EPHEMERIS_TYPE":"0","TLE_LINE2":"2 46054  53.0554 350.1695 0001389  77.9217 282.1927 15.06394291 95719","OBJECT_ID":"2020-055AD","ECCENTRICITY":"0.00013890","MEAN_MOTION":"15.06394291","SITE":"AFETR","PERIOD":"95.593","TIME_SYSTEM":"UTC","FILE":"3414186","TLE_LINE1":"1 46054U 20055AD  22114.38442413  .00003239  00000-0  23625-3 0  9998","RA_OF_ASC_NODE":"350.1695","SEMIMAJOR_AXIS":"6925.366","OBJECT_TYPE":"PAYLOAD"},{"TIME_SYSTEM":"UTC","PERIOD":"95.592","SEMIMAJOR_AXIS":"6925.345","OBJECT_TYPE":"PAYLOAD","TLE_LINE1":"1 46055U 20055AE  22114.36968042  .00000943  00000-0  82171-4 0  9999","FILE":"3414186","RA_OF_ASC_NODE":"350.2501","OBJECT_ID":"2020-055AE","TLE_LINE2":"2 46055  53.0541 350.2501 0001679  78.0372 282.0805 15.06401001 95711","REV_AT_EPOCH":"9571","DECAY_DATE":null,"EPHEMERIS_TYPE":"0","LAUNCH_DATE":"2020-08-07","SITE":"AFETR","MEAN_MOTION":"15.06401001","ECCENTRICITY":"0.00016790","RCS_SIZE":"LARGE","CENTER_NAME":"EARTH","REF_FRAME":"TEME","GP_ID":"201933917","BSTAR":"0.00008217100000","ARG_OF_PERICENTER":"78.0372","NORAD_CAT_ID":"46055","MEAN_MOTION_DDOT":"0.0000000000000","ELEMENT_SET_NO":"999","PERIAPSIS":"546.048","APOAPSIS":"548.373","MEAN_MOTION_DOT":"0.00000943","OBJECT_NAME":"STARLINK-1554","EPOCH":"2022-04-24T08:52:20.388288","MEAN_ELEMENT_THEORY":"SGP4","INCLINATION":"53.0541","COUNTRY_CODE":"US","MEAN_ANOMALY":"282.0805","CLASSIFICATION_TYPE":"U"},{"ECCENTRICITY":"0.00017320","SITE":"AFETR","MEAN_MOTION":"15.06408825","LAUNCH_DATE":"2020-08-07","EPHEMERIS_TYPE":"0","REV_AT_EPOCH":"9572","DECAY_DATE":null,"OBJECT_ID":"2020-055AF","TLE_LINE2":"2 46056  53.0555 350.1357 0001732  61.3777 298.7386 15.06408825 95729","RA_OF_ASC_NODE":"350.1357","TLE_LINE1":"1 46056U 20055AF  22114.39179338  .00007009  00000-0  48887-3 0  9990","FILE":"3414186","OBJECT_TYPE":"PAYLOAD","SEMIMAJOR_AXIS":"6925.322","PERIOD":"95.592","TIME_SYSTEM":"UTC","CLASSIFICATION_TYPE":"U","MEAN_ANOMALY":"298.7386","COUNTRY_CODE":"US","INCLINATION":"53.0555","MEAN_ELEMENT_THEORY":"SGP4","EPOCH":"2022-04-24T09:24:10.948032","OBJECT_NAME":"STARLINK-1561","MEAN_MOTION_DOT":"0.00007009","APOAPSIS":"548.386","PERIAPSIS":"545.987","ELEMENT_SET_NO":"999","MEAN_MOTION_DDOT":"0.0000000000000","ARG_OF_PERICENTER":"61.3777","NORAD_CAT_ID":"46056","BSTAR":"0.00048887000000","GP_ID":"201933668","REF_FRAME":"TEME","CENTER_NAME":"EARTH","RCS_SIZE":"LARGE"},{"LAUNCH_DATE":"2020-08-07","EPHEMERIS_TYPE":"0","REV_AT_EPOCH":"9521","DECAY_DATE":null,"OBJECT_ID":"2020-055AH","TLE_LINE2":"2 46058  53.0553 349.1861 0001653  75.6287 284.4885 15.06406705 95218","ECCENTRICITY":"0.00016530","SITE":"AFETR","MEAN_MOTION":"15.06406705","PERIOD":"95.592","TIME_SYSTEM":"UTC","RA_OF_ASC_NODE":"349.1861","TLE_LINE1":"1 46058U 20055AH  22114.60188709 -.00000009  00000-0  18297-4 0  9995","FILE":"3414403","OBJECT_TYPE":"PAYLOAD","SEMIMAJOR_AXIS":"6925.328","EPOCH":"2022-04-24T14:26:43.044576","MEAN_ELEMENT_THEORY":"SGP4","OBJECT_NAME":"STARLINK-1564","MEAN_MOTION_DOT":"-0.00000009","APOAPSIS":"548.338","CLASSIFICATION_TYPE":"U","COUNTRY_CODE":"US","MEAN_ANOMALY":"284.4885","INCLINATION":"53.0553","ARG_OF_PERICENTER":"75.6287","NORAD_CAT_ID":"46058","BSTAR":"0.00001829700000","GP_ID":"201943031","REF_FRAME":"TEME","RCS_SIZE":"LARGE","CENTER_NAME":"EARTH","PERIAPSIS":"546.048","MEAN_MOTION_DDOT":"0.0000000000000","ELEMENT_SET_NO":"999"},{"PERIAPSIS":"546.252","MEAN_MOTION_DDOT":"0.0000000000000","ELEMENT_SET_NO":"999","REF_FRAME":"TEME","RCS_SIZE":"LARGE","CENTER_NAME":"EARTH","NORAD_CAT_ID":"46059","ARG_OF_PERICENTER":"73.6984","GP_ID":"201943059","BSTAR":"0.00035228000000","COUNTRY_CODE":"US","MEAN_ANOMALY":"286.4155","INCLINATION":"53.0568","CLASSIFICATION_TYPE":"U","MEAN_MOTION_DOT":"0.00004970","APOAPSIS":"548.141","MEAN_ELEMENT_THEORY":"SGP4","EPOCH":"2022-04-24T19:23:57.389568","OBJECT_NAME":"STARLINK-1570","OBJECT_TYPE":"PAYLOAD","SEMIMAJOR_AXIS":"6925.331","RA_OF_ASC_NODE":"348.2638","FILE":"3414386","TLE_LINE1":"1 46059U 20055AJ  22114.80830312  .00004970  00000-0  35228-3 0  9994","TIME_SYSTEM":"UTC","PERIOD":"95.592","MEAN_MOTION":"15.06405614","SITE":"AFETR","ECCENTRICITY":"0.00013640","TLE_LINE2":"2 46059  53.0568 348.2638 0001364  73.6984 286.4155 15.06405614 95241","OBJECT_ID":"2020-055AJ","LAUNCH_DATE":"2020-08-07","EPHEMERIS_TYPE":"0","DECAY_DATE":null,"REV_AT_EPOCH":"9524"},{"MEAN_MOTION_DOT":"0.00003157","APOAPSIS":"548.367","MEAN_ELEMENT_THEORY":"SGP4","EPOCH":"2022-04-24T19:18:39.002976","OBJECT_NAME":"STARLINK-1572","COUNTRY_CODE":"US","MEAN_ANOMALY":"285.7690","INCLINATION":"53.0559","CLASSIFICATION_TYPE":"U","REF_FRAME":"TEME","RCS_SIZE":"LARGE","CENTER_NAME":"EARTH","NORAD_CAT_ID":"46060","ARG_OF_PERICENTER":"74.3485","GP_ID":"201943057","BSTAR":"0.00023073000000","PERIAPSIS":"546.035","MEAN_MOTION_DDOT":"0.0000000000000","ELEMENT_SET_NO":"999","OBJECT_ID":"2020-055AK","TLE_LINE2":"2 46060  53.0559 348.2839 0001684  74.3485 285.7690 15.06404148 95242","LAUNCH_DATE":"2020-08-07","EPHEMERIS_TYPE":"0","REV_AT_EPOCH":"9524","DECAY_DATE":null,"SITE":"AFETR","MEAN_MOTION":"15.06404148","ECCENTRICITY":"0.00016840","TIME_SYSTEM":"UTC","PERIOD":"95.592","OBJECT_TYPE":"PAYLOAD","SEMIMAJOR_AXIS":"6925.336","RA_OF_ASC_NODE":"348.2839","TLE_LINE1":"1 46060U 20055AK  22114.80461809  .00003157  00000-0  23073-3 0  9998","FILE":"3414386"}];
